OBJECT_NAME,OBJECT_ID,EPOCH,MEAN_MOTION,ECCENTRICITY,INCLINATION,RA_OF_ASC_NODE,ARG_OF_PERICENTER,MEAN_ANOMALY,EPHEMERIS_TYPE,CLASSIFICATION_TYPE,NORAD_CAT_ID,ELEMENT_SET_NO,REV_AT_EPOCH,BSTAR,MEAN_MOTION_DOT,MEAN_MOTION_DDOT
IRIDIUM 138,2017-083B,2026-07-02T14:17:55.196736,14.34217697,.0002168,86.3993,315.2712,88.1495,271.9949,0,U,43071,999,44634,.6543E-5,.38E-6,0
IRIDIUM 116,2017-083C,2026-07-02T18:33:39.195648,14.34217880,.0002286,86.3979,315.4848,101.0030,259.1423,0,U,43072,999,44640,.14363E-4,.6E-6,0
IRIDIUM 130,2017-083D,2026-07-02T17:47:59.125056,14.34217534,.0002063,86.3988,315.7749,98.6858,261.4572,0,U,43073,999,44634,.97032E-5,.47E-6,0
IRIDIUM 151,2017-083E,2026-07-02T15:30:59.164704,14.34218004,.0002236,86.3981,315.5959,93.9583,266.1868,0,U,43074,999,44635,.17393E-4,.68E-6,0
IRIDIUM 134,2017-083F,2026-07-02T18:06:15.065856,14.34218386,.0002182,86.3982,315.5590,95.2816,264.8628,0,U,43075,999,44633,.74579E-4,.229E-5,0
IRIDIUM 137,2017-083G,2026-07-02T18:24:31.251168,14.34217791,.0002601,86.3983,315.6467,99.0534,261.0956,0,U,43076,999,44640,.84323E-5,.43E-6,0
IRIDIUM 141,2017-083H,2026-07-02T09:53:03.179904,14.34217810,.0002201,86.3978,315.6251,91.5678,268.5770,0,U,43077,999,44635,.10599E-4,.49E-6,0
IRIDIUM 153,2017-083J,2026-07-02T17:06:31.388256,14.34218070,.0002153,86.3968,283.9799,91.9663,268.1779,0,U,43078,999,44750,.21294E-4,.79E-6,0
IRIDIUM 131,2017-083K,2026-07-02T17:57:07.178400,14.34218278,.0002236,86.3986,315.6715,93.3320,266.8131,0,U,43079,999,44633,.45999E-4,.149E-5,0
IRIDIUM 144,2018-030A,2026-07-02T17:15:39.398400,14.34217660,.0002269,86.3965,283.9060,98.1184,262.0269,0,U,43249,999,43236,.43207E-4,.141E-5,0
IRIDIUM 149,2018-030B,2026-07-02T17:24:47.452608,14.34217483,.000216,86.3960,283.8700,93.6826,266.4616,0,U,43250,999,43238,-.46864E-5,.7E-7,0
IRIDIUM 157,2018-030C,2026-07-02T17:52:11.419968,14.34218312,.000222,86.3964,283.9155,94.6283,265.5167,0,U,43251,999,43236,.56391E-4,.178E-5,0
IRIDIUM 140,2018-030D,2026-07-02T13:18:11.436192,14.34217831,.0002199,86.3966,284.0078,95.2990,264.8457,0,U,43252,999,43239,.28049E-4,.98E-6,0
IRIDIUM 145,2018-030E,2026-07-02T18:01:18.503904,14.34216788,.0002282,86.3964,283.8977,103.0282,257.1168,0,U,43253,999,43235,.13689E-3,.403E-5,0
IRIDIUM 146,2018-030F,2026-07-02T17:33:55.429920,14.34218537,.0002275,86.3965,283.9178,98.5342,261.6112,0,U,43254,999,43236,.67235E-4,.208E-5,0
IRIDIUM 148,2018-030G,2026-07-02T16:48:15.480288,14.34217511,.0002248,86.3963,283.9746,95.3647,264.7806,0,U,43255,999,43239,-.83603E-6,.17E-6,0
IRIDIUM 142,2018-030H,2026-07-02T17:43:03.421056,14.34218190,.0002314,86.3963,283.8469,98.7791,261.3667,0,U,43256,999,43236,.31097E-4,.107E-5,0
IRIDIUM 150,2018-030J,2026-07-02T16:57:23.428224,14.34218323,.0002195,86.3967,283.9772,96.2290,263.9156,0,U,43257,999,43238,.6665E-4,.206E-5,0
IRIDIUM 143,2018-030K,2026-07-02T16:29:59.129952,14.34216894,.0002259,86.3968,284.0782,98.4037,261.7415,0,U,43258,999,43231,.19069E-4,.73E-6,0
IRIDIUM 161,2018-047C,2026-07-02T16:46:42.449952,14.43281100,.000244,86.4475,81.9854,79.9577,280.1899,0,U,43478,999,42737,.10641E-3,.378E-5,0
IRIDIUM 152,2018-047D,2026-07-02T15:50:42.878400,14.34214940,.0002136,86.3951,81.8624,81.5878,278.5560,0,U,43479,999,42470,-.9656E-4,-.251E-5,0
IRIDIUM 147,2018-047E,2026-07-02T10:58:25.769280,14.34220530,.0002214,86.3952,81.9532,87.4612,272.6837,0,U,43480,999,42467,.91735E-4,.277E-5,0
IRIDIUM 110,2018-047F,2026-07-02T11:07:34.282272,14.34217856,.0002371,86.3953,82.0428,76.6533,283.4927,0,U,43481,999,42466,.13566E-4,.58E-6,0
IRIDIUM 162,2018-047G,2026-07-02T16:37:37.729056,14.43282750,.0002218,86.4472,81.8786,83.2263,276.9190,0,U,43482,999,42736,.10251E-3,.365E-5,0
IRIDIUM 160,2018-061A,2026-07-02T14:50:58.470720,14.34217839,.000225,86.3948,50.3439,85.9941,274.1512,0,U,43569,999,41558,.71013E-5,.4E-6,0
IRIDIUM 166,2018-061B,2026-07-02T13:47:02.474880,14.34218192,.0002225,86.3947,50.3129,88.8527,271.2924,0,U,43570,999,41560,.5858E-4,.184E-5,0
IRIDIUM 158,2018-061C,2026-07-02T14:41:50.462304,14.34217469,.0002002,86.3944,50.3065,84.1573,275.9851,0,U,43571,999,41557,-.16719E-5,.15E-6,0
IRIDIUM 165,2018-061D,2026-07-02T13:37:54.461280,14.34217863,.0002164,86.3948,50.3720,90.0240,270.1203,0,U,43572,999,41559,.15315E-4,.63E-6,0
IRIDIUM 155,2018-061E,2026-07-02T14:23:34.377216,14.34218555,.0002047,86.3943,50.2269,86.3098,273.8332,0,U,43573,999,41556,.45219E-4,.146E-5,0
IRIDIUM 154,2018-061F,2026-07-02T15:36:38.401344,14.34218200,.0002243,86.3949,50.3402,89.5471,270.5982,0,U,43574,999,41562,.19591E-4,.75E-6,0
IRIDIUM 163,2018-061G,2026-07-02T15:09:14.452128,14.34217640,.0002069,86.3944,50.2626,83.9398,276.2033,0,U,43575,999,41559,-.13049E-5,.16E-6,0
